IRIDIUM 150             
1 43257U 18030J   24120.46170411  .00000389  00000+0  13181-3 0  9992
2 43257  86.3954 255.8733 0001855  89.2952 270.8456 14.34219217318542
IRIDIUM 143             
1 43258U 18030K   24120.86128938  .00000284  00000+0  94194-4 0  9992
2 43258  86.3967 255.7690 0001868  97.3217 262.8191 14.34213229318562
IRIDIUM 161             
1 43478U 18047C   24120.51434588  .00000809  00000+0  23459-3 0  9995
2 43478  86.4508  53.8837 0002339  88.0197 272.1272 14.43280980312821
IRIDIUM 152             
1 43479U 18047D   24120.76423824  .00000033  00000+0  47115-5 0  9990
2 43479  86.3981  53.6391 0002230  84.2040 275.9410 14.34218113310927
IRIDIUM 147             
1 43480U 18047E   24120.56126534  .00000271  00000+0  89814-4 0  9993
2 43480  86.3986  53.7150 0002416  85.9836 274.1636 14.34216394310880
IRIDIUM 110             
1 43481U 18047F   24120.56761782  .00000546  00000+0  18798-3 0  9991
2 43481  86.3987  53.7841 0002720  81.6208 278.5296 14.34217758310877
IRIDIUM 162             
1 43482U 18047G   24120.85469060  .00000771  00000+0  22330-3 0  9995
2 43482  86.4508  53.6423 0002432  87.3878 272.7601 14.43284363312862
IRIDIUM 160             
1 43569U 18061A   24120.44368518  .00000485  00000+0  16627-3 0  9992
2 43569  86.4018  22.2172 0002456  92.6960 267.4517 14.34220089301752
